<gpx creator="Mission Planner" xmlns="http://www.topografix.com/GPX/1/1"><trk><trkseg><trkpt lat="39.9200989" lon="-105.1130278"><ele>1701.46</ele><time>2018-06-05T17:31:03-06:00</time><course>124.65</course><roll>-0.85</roll><pitch>0.5</pitch><mode /></trkpt><trkpt lat="39.9200933" lon="-105.1130317"><ele>1701.24</ele><time>2018-06-05T17:31:03-06:00</time><course>124.64</course><roll>-0.84</roll><pitch>0.51</pitch><mode /></trkpt><trkpt lat="39.920087" lon="-105.1130357"><ele>1700.98</ele><time>2018-06-05T17:31:03-06:00</time><course>124.65</course><roll>-0.84</roll><pitch>0.52</pitch><mode /></trkpt><trkpt lat="39.9200852" lon="-105.1129605"><ele>1695.87</ele><time>2018-06-05T17:31:09-06:00</time><course>124.76</course><roll>-0.72</roll><pitch>0.67</pitch><mode /></trkpt><trkpt lat="39.9200847" lon="-105.1129574"><ele>1695.19</ele><time>2018-06-05T17:31:10-06:00</time><course>124.77</course><roll>-0.72</roll><pitch>0.67</pitch><mode /></trkpt><trkpt lat="39.9200893" lon="-105.1129527"><ele>1694.5</ele><time>2018-06-05T17:31:10-06:00</time><course>124.74</course><roll>-0.71</roll><pitch>0.68</pitch><mode /></trkpt><trkpt lat="39.9200901" lon="-105.1129517"><ele>1693.97</ele><time>2018-06-05T17:31:10-06:00</time><course>124.73</course><roll>-0.71</roll><pitch>0.68</pitch><mode /></trkpt><trkpt lat="39.9200896" lon="-105.1129512"><ele>1693.3</ele><time>2018-06-05T17:31:10-06:00</time><course>124.71</course><roll>-0.7</roll><pitch>0.68</pitch><mode /></trkpt><trkpt lat="39.9200894" lon="-105.1129503"><ele>1692.99</ele><time>2018-06-05T17:31:11-06:00</time><course>124.72</course><roll>-0.7</roll><pitch>0.68</pitch><mode /></trkpt><trkpt lat="39.9200893" lon="-105.1129493"><ele>1692.73</ele><time>2018-06-05T17:31:11-06:00</time><course>124.74</course><roll>-0.69</roll><pitch>0.68</pitch><mode /></trkpt><trkpt lat="39.9200882" lon="-105.1129492"><ele>1692.48</ele><time>2018-06-05T17:31:11-06:00</time><course>124.72</course><roll>-0.69</roll><pitch>0.68</pitch><mode /></trkpt><trkpt lat="39.9200835" lon="-105.1129532"><ele>1692.34</ele><time>2018-06-05T17:31:11-06:00</time><course>124.75</course><roll>-0.69</roll><pitch>0.69</pitch><mode /></trkpt><trkpt lat="39.920078" lon="-105.1129579"><ele>1692.15</ele><time>2018-06-05T17:31:11-06:00</time><course>124.74</course><roll>-0.69</roll><pitch>0.69</pitch><mode /></trkpt><trkpt lat="39.9200744" lon="-105.1129595"><ele>1691.85</ele><time>2018-06-05T17:31:12-06:00</time><course>124.74</course><roll>-0.68</roll><pitch>0.69</pitch><mode /></trkpt><trkpt lat="39.9200706" lon="-105.112961"><ele>1691.55</ele><time>2018-06-05T17:31:12-06:00</time><course>124.76</course><roll>-0.68</roll><pitch>0.69</pitch><mode /></trkpt><trkpt lat="39.920067" lon="-105.1129632"><ele>1691.25</ele><time>2018-06-05T17:31:12-06:00</time><course>124.76</course><roll>-0.68</roll><pitch>0.7</pitch><mode /></trkpt><trkpt lat="39.9200634" lon="-105.1129636"><ele>1690.92</ele><time>2018-06-05T17:31:12-06:00</time><course>124.75</course><roll>-0.68</roll><pitch>0.7</pitch><mode /></trkpt><trkpt lat="39.920059" lon="-105.1129668"><ele>1690.66</ele><time>2018-06-05T17:31:12-06:00</time><course>124.75</course><roll>-0.68</roll><pitch>0.7</pitch><mode /></trkpt><trkpt lat="39.9200577" lon="-105.1129662"><ele>1690.3</ele><time>2018-06-05T17:31:13-06:00</time><course>124.77</course><roll>-0.67</roll><pitch>0.7</pitch><mode /></trkpt><trkpt lat="39.920056" lon="-105.1129622"><ele>1689.51</ele><time>2018-06-05T17:31:13-06:00</time><course>124.78</course><roll>-0.67</roll><pitch>0.7</pitch><mode /></trkpt><trkpt lat="39.9200537" lon="-105.1129618"><ele>1689.17</ele><time>2018-06-05T17:31:13-06:00</time><course>124.79</course><roll>-0.67</roll><pitch>0.7</pitch><mode /></trkpt><trkpt lat="39.9200527" lon="-105.112961"><ele>1688.79</ele><time>2018-06-05T17:31:13-06:00</time><course>124.82</course><roll>-0.67</roll><pitch>0.7</pitch><mode /></trkpt><trkpt lat="39.920051" lon="-105.1129604"><ele>1688.4</ele><time>2018-06-05T17:31:14-06:00</time><course>124.82</course><roll>-0.67</roll><pitch>0.7</pitch><mode /></trkpt><trkpt lat="39.9200472" lon="-105.1129623"><ele>1687.72</ele><time>2018-06-05T17:31:14-06:00</time><course>124.8</course><roll>-0.67</roll><pitch>0.7</pitch><mode /></trkpt><trkpt lat="39.9200451" lon="-105.1129628"><ele>1687.4</ele><time>2018-06-05T17:31:14-06:00</time><course>124.78</course><roll>-0.67</roll><pitch>0.69</pitch><mode /></trkpt><trkpt lat="39.9200448" lon="-105.1129615"><ele>1687.03</ele><time>2018-06-05T17:31:14-06:00</time><course>124.78</course><roll>-0.67</roll><pitch>0.7</pitch><mode /></trkpt><trkpt lat="39.9200429" lon="-105.1129621"><ele>1686.71</ele><time>2018-06-05T17:31:15-06:00</time><course>124.79</course><roll>-0.66</roll><pitch>0.7</pitch><mode /></trkpt><trkpt lat="39.9200406" lon="-105.1129632"><ele>1686.44</ele><time>2018-06-05T17:31:15-06:00</time><course>124.81</course><roll>-0.66</roll><pitch>0.7</pitch><mode /></trkpt><trkpt lat="39.9200396" lon="-105.1129625"><ele>1686.17</ele><time>2018-06-05T17:31:15-06:00</time><course>124.8</course><roll>-0.67</roll><pitch>0.7</pitch><mode /></trkpt><trkpt lat="39.9200394" lon="-105.1129609"><ele>1685.9</ele><time>2018-06-05T17:31:15-06:00</time><course>124.81</course><roll>-0.67</roll><pitch>0.7</pitch><mode /></trkpt><trkpt lat="39.9200366" lon="-105.1129601"><ele>1685.63</ele><time>2018-06-05T17:31:15-06:00</time><course>124.81</course><roll>-0.67</roll><pitch>0.7</pitch><mode /></trkpt><trkpt lat="39.9200353" lon="-105.1129596"><ele>1685.37</ele><time>2018-06-05T17:31:16-06:00</time><course>124.81</course><roll>-0.67</roll><pitch>0.7</pitch><mode /></trkpt><trkpt lat="39.9200351" lon="-105.1129597"><ele>1685.13</ele><time>2018-06-05T17:31:16-06:00</time><course>124.84</course><roll>-0.66</roll><pitch>0.7</pitch><mode /></trkpt><trkpt lat="39.920034" lon="-105.11296"><ele>1684.9</ele><time>2018-06-05T17:31:16-06:00</time><course>124.84</course><roll>-0.66</roll><pitch>0.7</pitch><mode /></trkpt><trkpt lat="39.920032" lon="-105.1129589"><ele>1684.63</ele><time>2018-06-05T17:31:16-06:00</time><course>124.83</course><roll>-0.66</roll><pitch>0.71</pitch><mode /></trkpt><trkpt lat="39.9200302" lon="-105.1129597"><ele>1684.4</ele><time>2018-06-05T17:31:16-06:00</time><course>124.85</course><roll>-0.66</roll><pitch>0.71</pitch><mode /></trkpt><trkpt lat="39.9200253" lon="-105.1129624"><ele>1684.16</ele><time>2018-06-05T17:31:17-06:00</time><course>124.88</course><roll>-0.65</roll><pitch>0.71</pitch><mode /></trkpt><trkpt lat="39.9200237" lon="-105.1129621"><ele>1683.9</ele><time>2018-06-05T17:31:17-06:00</time><course>124.87</course><roll>-0.65</roll><pitch>0.71</pitch><mode /></trkpt><trkpt lat="39.920021" lon="-105.112962"><ele>1683.68</ele><time>2018-06-05T17:31:17-06:00</time><course>124.88</course><roll>-0.66</roll><pitch>0.7</pitch><mode /></trkpt><trkpt lat="39.920018" lon="-105.1129631"><ele>1683.48</ele><time>2018-06-05T17:31:17-06:00</time><course>124.87</course><roll>-0.66</roll><pitch>0.7</pitch><mode /></trkpt><trkpt lat="39.9200814" lon="-105.1128515"><ele>1683.19</ele><time>2018-06-05T17:31:40-06:00</time><course>124.58</course><roll>-0.84</roll><pitch>0.46</pitch><mode /></trkpt><trkpt lat="39.9200718" lon="-105.1128591"><ele>1682.12</ele><time>2018-06-05T17:31:41-06:00</time><course>124.59</course><roll>-0.84</roll><pitch>0.46</pitch><mode /></trkpt><trkpt lat="39.9200615" lon="-105.1128674"><ele>1681.05</ele><time>2018-06-05T17:31:41-06:00</time><course>124.58</course><roll>-0.83</roll><pitch>0.47</pitch><mode /></trkpt><trkpt lat="39.9200534" lon="-105.1128728"><ele>1680.05</ele><time>2018-06-05T17:31:41-06:00</time><course>124.57</course><roll>-0.83</roll><pitch>0.47</pitch><mode /></trkpt><trkpt lat="39.9200447" lon="-105.1128798"><ele>1679</ele><time>2018-06-05T17:31:41-06:00</time><course>124.59</course><roll>-0.82</roll><pitch>0.48</pitch><mode /></trkpt><trkpt lat="39.9200346" lon="-105.1128885"><ele>1678.02</ele><time>2018-06-05T17:31:41-06:00</time><course>124.59</course><roll>-0.82</roll><pitch>0.48</pitch><mode /></trkpt><trkpt lat="39.9200261" lon="-105.1128949"><ele>1677.02</ele><time>2018-06-05T17:31:42-06:00</time><course>124.62</course><roll>-0.82</roll><pitch>0.48</pitch><mode /></trkpt><trkpt lat="39.9200161" lon="-105.1129034"><ele>1676.01</ele><time>2018-06-05T17:31:42-06:00</time><course>124.61</course><roll>-0.82</roll><pitch>0.48</pitch><mode /></trkpt><trkpt lat="39.9200071" lon="-105.112911"><ele>1674.98</ele><time>2018-06-05T17:31:42-06:00</time><course>124.63</course><roll>-0.81</roll><pitch>0.49</pitch><mode /></trkpt><trkpt lat="39.9199974" lon="-105.1129193"><ele>1674.04</ele><time>2018-06-05T17:31:42-06:00</time><course>124.63</course><roll>-0.81</roll><pitch>0.5</pitch><mode /></trkpt><trkpt lat="39.9199889" lon="-105.1129255"><ele>1673.04</ele><time>2018-06-05T17:31:42-06:00</time><course>124.63</course><roll>-0.81</roll><pitch>0.5</pitch><mode /></trkpt><trkpt lat="39.9199812" lon="-105.1129322"><ele>1672.11</ele><time>2018-06-05T17:31:43-06:00</time><course>124.62</course><roll>-0.81</roll><pitch>0.5</pitch><mode /></trkpt><trkpt lat="39.9199727" lon="-105.1129386"><ele>1671.2</ele><time>2018-06-05T17:31:43-06:00</time><course>124.64</course><roll>-0.81</roll><pitch>0.5</pitch><mode /></trkpt><trkpt lat="39.9199651" lon="-105.1129438"><ele>1670.34</ele><time>2018-06-05T17:31:43-06:00</time><course>124.63</course><roll>-0.81</roll><pitch>0.5</pitch><mode /></trkpt><trkpt lat="39.9199574" lon="-105.11295"><ele>1669.58</ele><time>2018-06-05T17:31:43-06:00</time><course>124.62</course><roll>-0.81</roll><pitch>0.5</pitch><mode /></trkpt><trkpt lat="39.919949" lon="-105.1129575"><ele>1668.77</ele><time>2018-06-05T17:31:43-06:00</time><course>124.63</course><roll>-0.81</roll><pitch>0.5</pitch><mode /></trkpt><trkpt lat="39.9199419" lon="-105.1129625"><ele>1668.03</ele><time>2018-06-05T17:31:44-06:00</time><course>124.65</course><roll>-0.81</roll><pitch>0.51</pitch><mode /></trkpt><trkpt lat="39.9199356" lon="-105.1129663"><ele>1667.25</ele><time>2018-06-05T17:31:44-06:00</time><course>124.64</course><roll>-0.81</roll><pitch>0.51</pitch><mode /></trkpt><trkpt lat="39.9199289" lon="-105.112971"><ele>1666.49</ele><time>2018-06-05T17:31:44-06:00</time><course>124.64</course><roll>-0.81</roll><pitch>0.51</pitch><mode /></trkpt><trkpt lat="39.9199221" lon="-105.1129765"><ele>1665.76</ele><time>2018-06-05T17:31:44-06:00</time><course>124.64</course><roll>-0.81</roll><pitch>0.5</pitch><mode /></trkpt><trkpt lat="39.9199148" lon="-105.112982"><ele>1665.03</ele><time>2018-06-05T17:31:44-06:00</time><course>124.63</course><roll>-0.81</roll><pitch>0.5</pitch><mode /></trkpt><trkpt lat="39.9199089" lon="-105.112986"><ele>1664.3</ele><time>2018-06-05T17:31:45-06:00</time><course>124.64</course><roll>-0.81</roll><pitch>0.5</pitch><mode /></trkpt><trkpt lat="39.919902" lon="-105.1129916"><ele>1663.61</ele><time>2018-06-05T17:31:45-06:00</time><course>124.65</course><roll>-0.81</roll><pitch>0.5</pitch><mode /></trkpt><trkpt lat="39.9198953" lon="-105.1129963"><ele>1662.93</ele><time>2018-06-05T17:31:45-06:00</time><course>124.63</course><roll>-0.81</roll><pitch>0.5</pitch><mode /></trkpt><trkpt lat="39.9198874" lon="-105.1130018"><ele>1662.15</ele><time>2018-06-05T17:31:45-06:00</time><course>124.65</course><roll>-0.8</roll><pitch>0.5</pitch><mode /></trkpt><trkpt lat="39.9198797" lon="-105.1130078"><ele>1661.39</ele><time>2018-06-05T17:31:45-06:00</time><course>124.64</course><roll>-0.81</roll><pitch>0.51</pitch><mode /></trkpt><trkpt lat="39.9198702" lon="-105.113015"><ele>1660.64</ele><time>2018-06-05T17:31:46-06:00</time><course>124.64</course><roll>-0.81</roll><pitch>0.51</pitch><mode /></trkpt><trkpt lat="39.9198609" lon="-105.1130223"><ele>1659.89</ele><time>2018-06-05T17:31:46-06:00</time><course>124.63</course><roll>-0.81</roll><pitch>0.51</pitch><mode /></trkpt><trkpt lat="39.9198527" lon="-105.1130287"><ele>1659.14</ele><time>2018-06-05T17:31:46-06:00</time><course>124.62</course><roll>-0.81</roll><pitch>0.51</pitch><mode /></trkpt><trkpt lat="39.9198467" lon="-105.1130327"><ele>1658.38</ele><time>2018-06-05T17:31:46-06:00</time><course>124.62</course><roll>-0.8</roll><pitch>0.51</pitch><mode /></trkpt><trkpt lat="39.9198408" lon="-105.113036"><ele>1657.64</ele><time>2018-06-05T17:31:46-06:00</time><course>124.64</course><roll>-0.8</roll><pitch>0.51</pitch><mode /></trkpt><trkpt lat="39.9198329" lon="-105.1130423"><ele>1656.92</ele><time>2018-06-05T17:31:47-06:00</time><course>124.64</course><roll>-0.8</roll><pitch>0.51</pitch><mode /></trkpt><trkpt lat="39.9198248" lon="-105.1130483"><ele>1656.25</ele><time>2018-06-05T17:31:47-06:00</time><course>124.65</course><roll>-0.79</roll><pitch>0.51</pitch><mode /></trkpt><trkpt lat="39.9198172" lon="-105.113054"><ele>1655.52</ele><time>2018-06-05T17:31:47-06:00</time><course>124.66</course><roll>-0.79</roll><pitch>0.51</pitch><mode /></trkpt><trkpt lat="39.9198121" lon="-105.1130576"><ele>1654.83</ele><time>2018-06-05T17:31:47-06:00</time><course>124.66</course><roll>-0.79</roll><pitch>0.52</pitch><mode /></trkpt><trkpt lat="39.9198057" lon="-105.1130626"><ele>1654.1</ele><time>2018-06-05T17:31:47-06:00</time><course>124.68</course><roll>-0.79</roll><pitch>0.52</pitch><mode /></trkpt><trkpt lat="39.9197996" lon="-105.1130669"><ele>1653.38</ele><time>2018-06-05T17:31:48-06:00</time><course>124.68</course><roll>-0.79</roll><pitch>0.51</pitch><mode /></trkpt><trkpt lat="39.9199105" lon="-105.1129946"><ele>1665.77</ele><time>2018-06-05T17:31:48-06:00</time><course>124.69</course><roll>-0.79</roll><pitch>0.51</pitch><mode /></trkpt><trkpt lat="39.9199708" lon="-105.1129565"><ele>1672.64</ele><time>2018-06-05T17:31:48-06:00</time><course>124.7</course><roll>-0.79</roll><pitch>0.51</pitch><mode /></trkpt><trkpt lat="39.9200088" lon="-105.1129323"><ele>1677.07</ele><time>2018-06-05T17:31:48-06:00</time><course>124.68</course><roll>-0.8</roll><pitch>0.51</pitch><mode /></trkpt><trkpt lat="39.9200343" lon="-105.1129161"><ele>1680.05</ele><time>2018-06-05T17:31:48-06:00</time><course>124.67</course><roll>-0.8</roll><pitch>0.51</pitch><mode /></trkpt><trkpt lat="39.9200498" lon="-105.1129061"><ele>1681.93</ele><time>2018-06-05T17:31:49-06:00</time><course>124.68</course><roll>-0.8</roll><pitch>0.51</pitch><mode /></trkpt><trkpt lat="39.9200621" lon="-105.112898"><ele>1683.47</ele><time>2018-06-05T17:31:49-06:00</time><course>124.67</course><roll>-0.8</roll><pitch>0.51</pitch><mode /></trkpt><trkpt lat="39.920072" lon="-105.1128914"><ele>1684.67</ele><time>2018-06-05T17:31:49-06:00</time><course>124.69</course><roll>-0.8</roll><pitch>0.51</pitch><mode /></trkpt><trkpt lat="39.920082" lon="-105.1128848"><ele>1685.96</ele><time>2018-06-05T17:31:49-06:00</time><course>124.7</course><roll>-0.8</roll><pitch>0.51</pitch><mode /></trkpt><trkpt lat="39.9200887" lon="-105.1128801"><ele>1686.92</ele><time>2018-06-05T17:31:49-06:00</time><course>124.7</course><roll>-0.8</roll><pitch>0.51</pitch><mode /></trkpt><trkpt lat="39.9200958" lon="-105.112875"><ele>1687.93</ele><time>2018-06-05T17:31:50-06:00</time><course>124.71</course><roll>-0.8</roll><pitch>0.51</pitch><mode /></trkpt><trkpt lat="39.9201017" lon="-105.1128703"><ele>1688.79</ele><time>2018-06-05T17:31:50-06:00</time><course>124.7</course><roll>-0.8</roll><pitch>0.51</pitch><mode /></trkpt><trkpt lat="39.9201067" lon="-105.1128658"><ele>1689.58</ele><time>2018-06-05T17:31:50-06:00</time><course>124.69</course><roll>-0.79</roll><pitch>0.51</pitch><mode /></trkpt><trkpt lat="39.9201102" lon="-105.1128618"><ele>1690.33</ele><time>2018-06-05T17:31:50-06:00</time><course>124.67</course><roll>-0.79</roll><pitch>0.51</pitch><mode /></trkpt><trkpt lat="39.9201132" lon="-105.112858"><ele>1691.02</ele><time>2018-06-05T17:31:50-06:00</time><course>124.66</course><roll>-0.78</roll><pitch>0.51</pitch><mode /></trkpt><trkpt lat="39.9201162" lon="-105.112854"><ele>1691.62</ele><time>2018-06-05T17:31:51-06:00</time><course>124.66</course><roll>-0.79</roll><pitch>0.52</pitch><mode /></trkpt><trkpt lat="39.9201188" lon="-105.1128502"><ele>1692.16</ele><time>2018-06-05T17:31:51-06:00</time><course>124.66</course><roll>-0.78</roll><pitch>0.52</pitch><mode /></trkpt><trkpt lat="39.920121" lon="-105.1128464"><ele>1692.67</ele><time>2018-06-05T17:31:51-06:00</time><course>124.65</course><roll>-0.78</roll><pitch>0.52</pitch><mode /></trkpt><trkpt lat="39.9201235" lon="-105.1128427"><ele>1693.31</ele><time>2018-06-05T17:31:51-06:00</time><course>124.63</course><roll>-0.78</roll><pitch>0.52</pitch><mode /></trkpt><trkpt lat="39.9201259" lon="-105.1128391"><ele>1693.86</ele><time>2018-06-05T17:31:51-06:00</time><course>124.63</course><roll>-0.78</roll><pitch>0.52</pitch><mode /></trkpt><trkpt lat="39.9201271" lon="-105.1128363"><ele>1694.34</ele><time>2018-06-05T17:31:52-06:00</time><course>124.62</course><roll>-0.78</roll><pitch>0.53</pitch><mode /></trkpt><trkpt lat="39.9201289" lon="-105.112834"><ele>1694.81</ele><time>2018-06-05T17:31:52-06:00</time><course>124.61</course><roll>-0.78</roll><pitch>0.53</pitch><mode /></trkpt><trkpt lat="39.9201304" lon="-105.1128313"><ele>1695.26</ele><time>2018-06-05T17:31:52-06:00</time><course>124.61</course><roll>-0.78</roll><pitch>0.52</pitch><mode /></trkpt><trkpt lat="39.920132" lon="-105.1128291"><ele>1695.7</ele><time>2018-06-05T17:31:52-06:00</time><course>124.61</course><roll>-0.78</roll><pitch>0.52</pitch><mode /></trkpt><trkpt lat="39.9201335" lon="-105.1128274"><ele>1696.13</ele><time>2018-06-05T17:31:52-06:00</time><course>124.61</course><roll>-0.77</roll><pitch>0.53</pitch><mode /></trkpt><trkpt lat="39.9201352" lon="-105.1128259"><ele>1696.56</ele><time>2018-06-05T17:31:53-06:00</time><course>124.59</course><roll>-0.77</roll><pitch>0.53</pitch><mode /></trkpt><trkpt lat="39.9201366" lon="-105.1128248"><ele>1696.98</ele><time>2018-06-05T17:31:53-06:00</time><course>124.61</course><roll>-0.77</roll><pitch>0.53</pitch><mode /></trkpt><trkpt lat="39.9201382" lon="-105.1128227"><ele>1697.33</ele><time>2018-06-05T17:31:53-06:00</time><course>124.63</course><roll>-0.78</roll><pitch>0.53</pitch><mode /></trkpt><trkpt lat="39.9201391" lon="-105.11282"><ele>1697.57</ele><time>2018-06-05T17:31:53-06:00</time><course>124.65</course><roll>-0.78</roll><pitch>0.53</pitch><mode /></trkpt><trkpt lat="39.9201397" lon="-105.1128178"><ele>1697.81</ele><time>2018-06-05T17:31:53-06:00</time><course>124.68</course><roll>-0.78</roll><pitch>0.53</pitch><mode /></trkpt><trkpt lat="39.92014" lon="-105.1128154"><ele>1698.05</ele><time>2018-06-05T17:31:54-06:00</time><course>124.69</course><roll>-0.77</roll><pitch>0.54</pitch><mode /></trkpt></trkseg></trk><wpt lat="39.9200989" lon="-105.1130278"><name>0</name></wpt><wpt lat="39.9200933" lon="-105.1130317"><name>1</name></wpt><wpt lat="39.920087" lon="-105.1130357"><name>2</name></wpt><wpt lat="39.9200852" lon="-105.1129605"><name>3</name></wpt><wpt lat="39.9200847" lon="-105.1129574"><name>4</name></wpt><wpt lat="39.9200893" lon="-105.1129527"><name>5</name></wpt><wpt lat="39.9200901" lon="-105.1129517"><name>6</name></wpt><wpt lat="39.9200896" lon="-105.1129512"><name>7</name></wpt><wpt lat="39.9200894" lon="-105.1129503"><name>8</name></wpt><wpt lat="39.9200893" lon="-105.1129493"><name>9</name></wpt><wpt lat="39.9200882" lon="-105.1129492"><name>10</name></wpt><wpt lat="39.9200835" lon="-105.1129532"><name>11</name></wpt><wpt lat="39.920078" lon="-105.1129579"><name>12</name></wpt><wpt lat="39.9200744" lon="-105.1129595"><name>13</name></wpt><wpt lat="39.9200706" lon="-105.112961"><name>14</name></wpt><wpt lat="39.920067" lon="-105.1129632"><name>15</name></wpt><wpt lat="39.9200634" lon="-105.1129636"><name>16</name></wpt><wpt lat="39.920059" lon="-105.1129668"><name>17</name></wpt><wpt lat="39.9200577" lon="-105.1129662"><name>18</name></wpt><wpt lat="39.920056" lon="-105.1129622"><name>19</name></wpt><wpt lat="39.9200537" lon="-105.1129618"><name>20</name></wpt><wpt lat="39.9200527" lon="-105.112961"><name>21</name></wpt><wpt lat="39.920051" lon="-105.1129604"><name>22</name></wpt><wpt lat="39.9200472" lon="-105.1129623"><name>23</name></wpt><wpt lat="39.9200451" lon="-105.1129628"><name>24</name></wpt><wpt lat="39.9200448" lon="-105.1129615"><name>25</name></wpt><wpt lat="39.9200429" lon="-105.1129621"><name>26</name></wpt><wpt lat="39.9200406" lon="-105.1129632"><name>27</name></wpt><wpt lat="39.9200396" lon="-105.1129625"><name>28</name></wpt><wpt lat="39.9200394" lon="-105.1129609"><name>29</name></wpt><wpt lat="39.9200366" lon="-105.1129601"><name>30</name></wpt><wpt lat="39.9200353" lon="-105.1129596"><name>31</name></wpt><wpt lat="39.9200351" lon="-105.1129597"><name>32</name></wpt><wpt lat="39.920034" lon="-105.11296"><name>33</name></wpt><wpt lat="39.920032" lon="-105.1129589"><name>34</name></wpt><wpt lat="39.9200302" lon="-105.1129597"><name>35</name></wpt><wpt lat="39.9200253" lon="-105.1129624"><name>36</name></wpt><wpt lat="39.9200237" lon="-105.1129621"><name>37</name></wpt><wpt lat="39.920021" lon="-105.112962"><name>38</name></wpt><wpt lat="39.920018" lon="-105.1129631"><name>39</name></wpt><wpt lat="39.9200814" lon="-105.1128515"><name>40</name></wpt><wpt lat="39.9200718" lon="-105.1128591"><name>41</name></wpt><wpt lat="39.9200615" lon="-105.1128674"><name>42</name></wpt><wpt lat="39.9200534" lon="-105.1128728"><name>43</name></wpt><wpt lat="39.9200447" lon="-105.1128798"><name>44</name></wpt><wpt lat="39.9200346" lon="-105.1128885"><name>45</name></wpt><wpt lat="39.9200261" lon="-105.1128949"><name>46</name></wpt><wpt lat="39.9200161" lon="-105.1129034"><name>47</name></wpt><wpt lat="39.9200071" lon="-105.112911"><name>48</name></wpt><wpt lat="39.9199974" lon="-105.1129193"><name>49</name></wpt><wpt lat="39.9199889" lon="-105.1129255"><name>50</name></wpt><wpt lat="39.9199812" lon="-105.1129322"><name>51</name></wpt><wpt lat="39.9199727" lon="-105.1129386"><name>52</name></wpt><wpt lat="39.9199651" lon="-105.1129438"><name>53</name></wpt><wpt lat="39.9199574" lon="-105.11295"><name>54</name></wpt><wpt lat="39.919949" lon="-105.1129575"><name>55</name></wpt><wpt lat="39.9199419" lon="-105.1129625"><name>56</name></wpt><wpt lat="39.9199356" lon="-105.1129663"><name>57</name></wpt><wpt lat="39.9199289" lon="-105.112971"><name>58</name></wpt><wpt lat="39.9199221" lon="-105.1129765"><name>59</name></wpt><wpt lat="39.9199148" lon="-105.112982"><name>60</name></wpt><wpt lat="39.9199089" lon="-105.112986"><name>61</name></wpt><wpt lat="39.919902" lon="-105.1129916"><name>62</name></wpt><wpt lat="39.9198953" lon="-105.1129963"><name>63</name></wpt><wpt lat="39.9198874" lon="-105.1130018"><name>64</name></wpt><wpt lat="39.9198797" lon="-105.1130078"><name>65</name></wpt><wpt lat="39.9198702" lon="-105.113015"><name>66</name></wpt><wpt lat="39.9198609" lon="-105.1130223"><name>67</name></wpt><wpt lat="39.9198527" lon="-105.1130287"><name>68</name></wpt><wpt lat="39.9198467" lon="-105.1130327"><name>69</name></wpt><wpt lat="39.9198408" lon="-105.113036"><name>70</name></wpt><wpt lat="39.9198329" lon="-105.1130423"><name>71</name></wpt><wpt lat="39.9198248" lon="-105.1130483"><name>72</name></wpt><wpt lat="39.9198172" lon="-105.113054"><name>73</name></wpt><wpt lat="39.9198121" lon="-105.1130576"><name>74</name></wpt><wpt lat="39.9198057" lon="-105.1130626"><name>75</name></wpt><wpt lat="39.9197996" lon="-105.1130669"><name>76</name></wpt><wpt lat="39.9199105" lon="-105.1129946"><name>77</name></wpt><wpt lat="39.9199708" lon="-105.1129565"><name>78</name></wpt><wpt lat="39.9200088" lon="-105.1129323"><name>79</name></wpt><wpt lat="39.9200343" lon="-105.1129161"><name>80</name></wpt><wpt lat="39.9200498" lon="-105.1129061"><name>81</name></wpt><wpt lat="39.9200621" lon="-105.112898"><name>82</name></wpt><wpt lat="39.920072" lon="-105.1128914"><name>83</name></wpt><wpt lat="39.920082" lon="-105.1128848"><name>84</name></wpt><wpt lat="39.9200887" lon="-105.1128801"><name>85</name></wpt><wpt lat="39.9200958" lon="-105.112875"><name>86</name></wpt><wpt lat="39.9201017" lon="-105.1128703"><name>87</name></wpt><wpt lat="39.9201067" lon="-105.1128658"><name>88</name></wpt><wpt lat="39.9201102" lon="-105.1128618"><name>89</name></wpt><wpt lat="39.9201132" lon="-105.112858"><name>90</name></wpt><wpt lat="39.9201162" lon="-105.112854"><name>91</name></wpt><wpt lat="39.9201188" lon="-105.1128502"><name>92</name></wpt><wpt lat="39.920121" lon="-105.1128464"><name>93</name></wpt><wpt lat="39.9201235" lon="-105.1128427"><name>94</name></wpt><wpt lat="39.9201259" lon="-105.1128391"><name>95</name></wpt><wpt lat="39.9201271" lon="-105.1128363"><name>96</name></wpt><wpt lat="39.9201289" lon="-105.112834"><name>97</name></wpt><wpt lat="39.9201304" lon="-105.1128313"><name>98</name></wpt><wpt lat="39.920132" lon="-105.1128291"><name>99</name></wpt><wpt lat="39.9201335" lon="-105.1128274"><name>100</name></wpt><wpt lat="39.9201352" lon="-105.1128259"><name>101</name></wpt><wpt lat="39.9201366" lon="-105.1128248"><name>102</name></wpt><wpt lat="39.9201382" lon="-105.1128227"><name>103</name></wpt><wpt lat="39.9201391" lon="-105.11282"><name>104</name></wpt><wpt lat="39.9201397" lon="-105.1128178"><name>105</name></wpt><wpt lat="39.92014" lon="-105.1128154"><name>106</name></wpt></gpx>