<gpx creator="Mission Planner" xmlns="http://www.topografix.com/GPX/1/1"><trk><trkseg><trkpt lat="39.919827" lon="-105.1122571"><ele>1690.61</ele><time>2018-06-04T16:39:31-06:00</time><course>73.53</course><roll>1.03</roll><pitch>0.31</pitch><mode /></trkpt><trkpt lat="39.9197894" lon="-105.112224"><ele>1691.54</ele><time>2018-06-04T16:39:31-06:00</time><course>73.53</course><roll>1.02</roll><pitch>0.31</pitch><mode /></trkpt><trkpt lat="39.919762" lon="-105.1121979"><ele>1692.31</ele><time>2018-06-04T16:39:31-06:00</time><course>73.52</course><roll>1.02</roll><pitch>0.3</pitch><mode /></trkpt><trkpt lat="39.9197308" lon="-105.1121769"><ele>1693.28</ele><time>2018-06-04T16:39:32-06:00</time><course>73.51</course><roll>1.02</roll><pitch>0.3</pitch><mode /></trkpt><trkpt lat="39.9197093" lon="-105.1121659"><ele>1694.28</ele><time>2018-06-04T16:39:32-06:00</time><course>73.5</course><roll>1.02</roll><pitch>0.29</pitch><mode /></trkpt><trkpt lat="39.9196946" lon="-105.1121573"><ele>1695.21</ele><time>2018-06-04T16:39:32-06:00</time><course>73.49</course><roll>1.02</roll><pitch>0.28</pitch><mode /></trkpt><trkpt lat="39.9196844" lon="-105.1121515"><ele>1696.11</ele><time>2018-06-04T16:39:32-06:00</time><course>73.49</course><roll>1.02</roll><pitch>0.28</pitch><mode /></trkpt><trkpt lat="39.9196754" lon="-105.1121472"><ele>1697.17</ele><time>2018-06-04T16:39:32-06:00</time><course>73.49</course><roll>1.02</roll><pitch>0.27</pitch><mode /></trkpt><trkpt lat="39.9196655" lon="-105.1121405"><ele>1698.24</ele><time>2018-06-04T16:39:33-06:00</time><course>73.49</course><roll>1.01</roll><pitch>0.27</pitch><mode /></trkpt><trkpt lat="39.9196542" lon="-105.1121322"><ele>1699.27</ele><time>2018-06-04T16:39:33-06:00</time><course>73.49</course><roll>1.01</roll><pitch>0.26</pitch><mode /></trkpt><trkpt lat="39.9196407" lon="-105.1121203"><ele>1700.25</ele><time>2018-06-04T16:39:33-06:00</time><course>73.49</course><roll>1.01</roll><pitch>0.26</pitch><mode /></trkpt><trkpt lat="39.9196283" lon="-105.1121103"><ele>1701.23</ele><time>2018-06-04T16:39:33-06:00</time><course>73.61</course><roll>1.01</roll><pitch>0.25</pitch><mode /></trkpt><trkpt lat="39.9196153" lon="-105.1121009"><ele>1702.27</ele><time>2018-06-04T16:39:33-06:00</time><course>73.73</course><roll>1.01</roll><pitch>0.24</pitch><mode /></trkpt><trkpt lat="39.9196007" lon="-105.1120907"><ele>1703.5</ele><time>2018-06-04T16:39:34-06:00</time><course>73.85</course><roll>1.01</roll><pitch>0.24</pitch><mode /></trkpt><trkpt lat="39.9196049" lon="-105.1120969"><ele>1705.25</ele><time>2018-06-04T16:39:34-06:00</time><course>73.97</course><roll>1</roll><pitch>0.23</pitch><mode /></trkpt><trkpt lat="39.9197193" lon="-105.1121917"><ele>1715.61</ele><time>2018-06-04T16:39:37-06:00</time><course>75.76</course><roll>0.95</roll><pitch>0.14</pitch><mode /></trkpt><trkpt lat="39.9197504" lon="-105.1122613"><ele>1719.32</ele><time>2018-06-04T16:39:37-06:00</time><course>75.85</course><roll>0.94</roll><pitch>0.14</pitch><mode /></trkpt><trkpt lat="39.9197521" lon="-105.1122786"><ele>1722.57</ele><time>2018-06-04T16:39:38-06:00</time><course>75.95</course><roll>0.93</roll><pitch>0.13</pitch><mode /></trkpt><trkpt lat="39.9197515" lon="-105.1122921"><ele>1725.66</ele><time>2018-06-04T16:39:38-06:00</time><course>76.04</course><roll>0.93</roll><pitch>0.13</pitch><mode /></trkpt><trkpt lat="39.9197559" lon="-105.1123054"><ele>1727.91</ele><time>2018-06-04T16:39:38-06:00</time><course>76.14</course><roll>0.93</roll><pitch>0.12</pitch><mode /></trkpt><trkpt lat="39.9197604" lon="-105.1123164"><ele>1729.62</ele><time>2018-06-04T16:39:38-06:00</time><course>76.23</course><roll>0.93</roll><pitch>0.12</pitch><mode /></trkpt><trkpt lat="39.9197592" lon="-105.1123241"><ele>1731.31</ele><time>2018-06-04T16:39:38-06:00</time><course>76.32</course><roll>0.93</roll><pitch>0.11</pitch><mode /></trkpt><trkpt lat="39.9197582" lon="-105.1123314"><ele>1732.35</ele><time>2018-06-04T16:39:39-06:00</time><course>76.41</course><roll>0.92</roll><pitch>0.11</pitch><mode /></trkpt><trkpt lat="39.9197561" lon="-105.1123375"><ele>1733.1</ele><time>2018-06-04T16:39:39-06:00</time><course>76.49</course><roll>0.92</roll><pitch>0.11</pitch><mode /></trkpt><trkpt lat="39.9197538" lon="-105.112343"><ele>1733.82</ele><time>2018-06-04T16:39:39-06:00</time><course>76.58</course><roll>0.92</roll><pitch>0.11</pitch><mode /></trkpt><trkpt lat="39.9197516" lon="-105.1123479"><ele>1734.52</ele><time>2018-06-04T16:39:39-06:00</time><course>76.66</course><roll>0.91</roll><pitch>0.1</pitch><mode /></trkpt></trkseg></trk><wpt lat="39.919827" lon="-105.1122571"><name>0</name></wpt><wpt lat="39.9197894" lon="-105.112224"><name>1</name></wpt><wpt lat="39.919762" lon="-105.1121979"><name>2</name></wpt><wpt lat="39.9197308" lon="-105.1121769"><name>3</name></wpt><wpt lat="39.9197093" lon="-105.1121659"><name>4</name></wpt><wpt lat="39.9196946" lon="-105.1121573"><name>5</name></wpt><wpt lat="39.9196844" lon="-105.1121515"><name>6</name></wpt><wpt lat="39.9196754" lon="-105.1121472"><name>7</name></wpt><wpt lat="39.9196655" lon="-105.1121405"><name>8</name></wpt><wpt lat="39.9196542" lon="-105.1121322"><name>9</name></wpt><wpt lat="39.9196407" lon="-105.1121203"><name>10</name></wpt><wpt lat="39.9196283" lon="-105.1121103"><name>11</name></wpt><wpt lat="39.9196153" lon="-105.1121009"><name>12</name></wpt><wpt lat="39.9196007" lon="-105.1120907"><name>13</name></wpt><wpt lat="39.9196049" lon="-105.1120969"><name>14</name></wpt><wpt lat="39.9197193" lon="-105.1121917"><name>15</name></wpt><wpt lat="39.9197504" lon="-105.1122613"><name>16</name></wpt><wpt lat="39.9197521" lon="-105.1122786"><name>17</name></wpt><wpt lat="39.9197515" lon="-105.1122921"><name>18</name></wpt><wpt lat="39.9197559" lon="-105.1123054"><name>19</name></wpt><wpt lat="39.9197604" lon="-105.1123164"><name>20</name></wpt><wpt lat="39.9197592" lon="-105.1123241"><name>21</name></wpt><wpt lat="39.9197582" lon="-105.1123314"><name>22</name></wpt><wpt lat="39.9197561" lon="-105.1123375"><name>23</name></wpt><wpt lat="39.9197538" lon="-105.112343"><name>24</name></wpt><wpt lat="39.9197516" lon="-105.1123479"><name>25</name></wpt></gpx>