<gpx creator="Mission Planner" xmlns="http://www.topografix.com/GPX/1/1"><trk><trkseg><trkpt lat="39.9204919" lon="-105.1130495"><ele>1744.68</ele><time>2018-06-04T15:40:17-06:00</time><course>303.9</course><roll>-0.14</roll><pitch>0.06</pitch><mode /></trkpt><trkpt lat="39.920498" lon="-105.1130524"><ele>1744.68</ele><time>2018-06-04T15:40:17-06:00</time><course>303.75</course><roll>-0.14</roll><pitch>0.07</pitch><mode /></trkpt><trkpt lat="39.9204991" lon="-105.1130536"><ele>1744.68</ele><time>2018-06-04T15:40:19-06:00</time><course>303.71</course><roll>-0.14</roll><pitch>0.07</pitch><mode /></trkpt><trkpt lat="39.9205009" lon="-105.1130552"><ele>1744.68</ele><time>2018-06-04T15:40:19-06:00</time><course>303.72</course><roll>-0.14</roll><pitch>0.06</pitch><mode /></trkpt><trkpt lat="39.9205023" lon="-105.1130568"><ele>1744.68</ele><time>2018-06-04T15:40:19-06:00</time><course>303.88</course><roll>-0.15</roll><pitch>0.06</pitch><mode /></trkpt><trkpt lat="39.9205036" lon="-105.1130587"><ele>1744.68</ele><time>2018-06-04T15:40:19-06:00</time><course>303.9</course><roll>-0.15</roll><pitch>0.06</pitch><mode /></trkpt><trkpt lat="39.9205054" lon="-105.1130601"><ele>1744.68</ele><time>2018-06-04T15:40:20-06:00</time><course>304.06</course><roll>-0.15</roll><pitch>0.06</pitch><mode /></trkpt><trkpt lat="39.9205073" lon="-105.1130614"><ele>1744.68</ele><time>2018-06-04T15:40:20-06:00</time><course>304.01</course><roll>-0.15</roll><pitch>0.06</pitch><mode /></trkpt><trkpt lat="39.9205092" lon="-105.1130629"><ele>1744.68</ele><time>2018-06-04T15:40:20-06:00</time><course>303.97</course><roll>-0.15</roll><pitch>0.06</pitch><mode /></trkpt><trkpt lat="39.9205108" lon="-105.1130645"><ele>1744.67</ele><time>2018-06-04T15:40:20-06:00</time><course>303.92</course><roll>-0.15</roll><pitch>0.06</pitch><mode /></trkpt><trkpt lat="39.9205123" lon="-105.1130661"><ele>1744.67</ele><time>2018-06-04T15:40:20-06:00</time><course>303.88</course><roll>-0.15</roll><pitch>0.06</pitch><mode /></trkpt><trkpt lat="39.9205137" lon="-105.1130678"><ele>1744.67</ele><time>2018-06-04T15:40:21-06:00</time><course>303.84</course><roll>-0.15</roll><pitch>0.06</pitch><mode /></trkpt><trkpt lat="39.9205152" lon="-105.113069"><ele>1744.67</ele><time>2018-06-04T15:40:21-06:00</time><course>303.8</course><roll>-0.15</roll><pitch>0.06</pitch><mode /></trkpt><trkpt lat="39.9205167" lon="-105.1130698"><ele>1744.67</ele><time>2018-06-04T15:40:21-06:00</time><course>304.02</course><roll>-0.15</roll><pitch>0.06</pitch><mode /></trkpt><trkpt lat="39.920518" lon="-105.1130706"><ele>1744.67</ele><time>2018-06-04T15:40:21-06:00</time><course>303.97</course><roll>-0.15</roll><pitch>0.05</pitch><mode /></trkpt><trkpt lat="39.9205192" lon="-105.1130714"><ele>1744.67</ele><time>2018-06-04T15:40:21-06:00</time><course>303.93</course><roll>-0.15</roll><pitch>0.06</pitch><mode /></trkpt><trkpt lat="39.9205205" lon="-105.1130719"><ele>1744.67</ele><time>2018-06-04T15:40:22-06:00</time><course>303.95</course><roll>-0.15</roll><pitch>0.05</pitch><mode /></trkpt><trkpt lat="39.9205218" lon="-105.1130732"><ele>1744.67</ele><time>2018-06-04T15:40:22-06:00</time><course>304.42</course><roll>-0.15</roll><pitch>0.06</pitch><mode /></trkpt><trkpt lat="39.9205227" lon="-105.1130742"><ele>1744.67</ele><time>2018-06-04T15:40:22-06:00</time><course>304.63</course><roll>-0.16</roll><pitch>0.06</pitch><mode /></trkpt><trkpt lat="39.9205233" lon="-105.113075"><ele>1744.67</ele><time>2018-06-04T15:40:22-06:00</time><course>304.78</course><roll>-0.17</roll><pitch>0.07</pitch><mode /></trkpt><trkpt lat="39.920524" lon="-105.1130762"><ele>1744.67</ele><time>2018-06-04T15:40:22-06:00</time><course>304.73</course><roll>-0.17</roll><pitch>0.06</pitch><mode /></trkpt><trkpt lat="39.9205251" lon="-105.1130775"><ele>1744.67</ele><time>2018-06-04T15:40:23-06:00</time><course>304.93</course><roll>-0.17</roll><pitch>0.07</pitch><mode /></trkpt><trkpt lat="39.9205262" lon="-105.1130786"><ele>1744.67</ele><time>2018-06-04T15:40:23-06:00</time><course>304.87</course><roll>-0.17</roll><pitch>0.07</pitch><mode /></trkpt><trkpt lat="39.9205274" lon="-105.1130794"><ele>1744.67</ele><time>2018-06-04T15:40:23-06:00</time><course>304.82</course><roll>-0.17</roll><pitch>0.07</pitch><mode /></trkpt><trkpt lat="39.9205279" lon="-105.1130803"><ele>1744.67</ele><time>2018-06-04T15:40:23-06:00</time><course>304.76</course><roll>-0.17</roll><pitch>0.07</pitch><mode /></trkpt><trkpt lat="39.9205285" lon="-105.1130812"><ele>1744.67</ele><time>2018-06-04T15:40:23-06:00</time><course>304.7</course><roll>-0.17</roll><pitch>0.06</pitch><mode /></trkpt><trkpt lat="39.9205288" lon="-105.1130823"><ele>1744.67</ele><time>2018-06-04T15:40:24-06:00</time><course>304.66</course><roll>-0.17</roll><pitch>0.06</pitch><mode /></trkpt><trkpt lat="39.9205293" lon="-105.1130833"><ele>1744.67</ele><time>2018-06-04T15:40:24-06:00</time><course>304.87</course><roll>-0.17</roll><pitch>0.06</pitch><mode /></trkpt><trkpt lat="39.9205303" lon="-105.1130845"><ele>1744.67</ele><time>2018-06-04T15:40:24-06:00</time><course>304.83</course><roll>-0.17</roll><pitch>0.07</pitch><mode /></trkpt><trkpt lat="39.9205314" lon="-105.1130859"><ele>1744.67</ele><time>2018-06-04T15:40:24-06:00</time><course>304.78</course><roll>-0.17</roll><pitch>0.07</pitch><mode /></trkpt><trkpt lat="39.9205329" lon="-105.1130875"><ele>1744.67</ele><time>2018-06-04T15:40:24-06:00</time><course>304.73</course><roll>-0.17</roll><pitch>0.06</pitch><mode /></trkpt><trkpt lat="39.9205344" lon="-105.1130888"><ele>1744.67</ele><time>2018-06-04T15:40:25-06:00</time><course>304.57</course><roll>-0.17</roll><pitch>0.08</pitch><mode /></trkpt><trkpt lat="39.9205362" lon="-105.1130903"><ele>1744.67</ele><time>2018-06-04T15:40:25-06:00</time><course>303.39</course><roll>-0.15</roll><pitch>0.07</pitch><mode /></trkpt><trkpt lat="39.9205379" lon="-105.1130915"><ele>1744.67</ele><time>2018-06-04T15:40:25-06:00</time><course>303.36</course><roll>-0.15</roll><pitch>0.08</pitch><mode /></trkpt><trkpt lat="39.9205395" lon="-105.1130928"><ele>1744.67</ele><time>2018-06-04T15:40:25-06:00</time><course>303.39</course><roll>-0.15</roll><pitch>0.06</pitch><mode /></trkpt><trkpt lat="39.920541" lon="-105.1130944"><ele>1744.67</ele><time>2018-06-04T15:40:25-06:00</time><course>303.36</course><roll>-0.15</roll><pitch>0.06</pitch><mode /></trkpt><trkpt lat="39.9205424" lon="-105.1130957"><ele>1744.67</ele><time>2018-06-04T15:40:26-06:00</time><course>303.33</course><roll>-0.15</roll><pitch>0.06</pitch><mode /></trkpt><trkpt lat="39.9205438" lon="-105.1130963"><ele>1744.67</ele><time>2018-06-04T15:40:26-06:00</time><course>303.42</course><roll>-0.15</roll><pitch>0.06</pitch><mode /></trkpt><trkpt lat="39.9205449" lon="-105.1130971"><ele>1744.67</ele><time>2018-06-04T15:40:26-06:00</time><course>303.39</course><roll>-0.15</roll><pitch>0.06</pitch><mode /></trkpt><trkpt lat="39.9205461" lon="-105.1130979"><ele>1744.67</ele><time>2018-06-04T15:40:26-06:00</time><course>303.36</course><roll>-0.16</roll><pitch>0.06</pitch><mode /></trkpt><trkpt lat="39.9205476" lon="-105.113099"><ele>1744.67</ele><time>2018-06-04T15:40:26-06:00</time><course>303.37</course><roll>-0.15</roll><pitch>0.06</pitch><mode /></trkpt><trkpt lat="39.9205491" lon="-105.1131"><ele>1744.67</ele><time>2018-06-04T15:40:27-06:00</time><course>303.4</course><roll>-0.14</roll><pitch>0.07</pitch><mode /></trkpt><trkpt lat="39.9205503" lon="-105.1131007"><ele>1744.66</ele><time>2018-06-04T15:40:27-06:00</time><course>303.37</course><roll>-0.14</roll><pitch>0.07</pitch><mode /></trkpt><trkpt lat="39.9205516" lon="-105.1131014"><ele>1744.66</ele><time>2018-06-04T15:40:27-06:00</time><course>303.24</course><roll>-0.14</roll><pitch>0.08</pitch><mode /></trkpt><trkpt lat="39.9205528" lon="-105.1131022"><ele>1744.66</ele><time>2018-06-04T15:40:27-06:00</time><course>303.21</course><roll>-0.14</roll><pitch>0.07</pitch><mode /></trkpt><trkpt lat="39.9205539" lon="-105.1131033"><ele>1744.66</ele><time>2018-06-04T15:40:27-06:00</time><course>303.18</course><roll>-0.14</roll><pitch>0.07</pitch><mode /></trkpt><trkpt lat="39.9205547" lon="-105.1131041"><ele>1744.66</ele><time>2018-06-04T15:40:28-06:00</time><course>303.4</course><roll>-0.15</roll><pitch>0.07</pitch><mode /></trkpt><trkpt lat="39.9205555" lon="-105.1131045"><ele>1744.66</ele><time>2018-06-04T15:40:28-06:00</time><course>303.37</course><roll>-0.15</roll><pitch>0.07</pitch><mode /></trkpt><trkpt lat="39.9205564" lon="-105.1131047"><ele>1744.66</ele><time>2018-06-04T15:40:28-06:00</time><course>303.34</course><roll>-0.14</roll><pitch>0.07</pitch><mode /></trkpt><trkpt lat="39.9205574" lon="-105.1131049"><ele>1744.66</ele><time>2018-06-04T15:40:28-06:00</time><course>303.3</course><roll>-0.15</roll><pitch>0.07</pitch><mode /></trkpt><trkpt lat="39.9205581" lon="-105.1131051"><ele>1744.66</ele><time>2018-06-04T15:40:28-06:00</time><course>303.27</course><roll>-0.15</roll><pitch>0.06</pitch><mode /></trkpt><trkpt lat="39.9205586" lon="-105.1131047"><ele>1744.66</ele><time>2018-06-04T15:40:29-06:00</time><course>303.23</course><roll>-0.15</roll><pitch>0.07</pitch><mode /></trkpt><trkpt lat="39.9205596" lon="-105.1131042"><ele>1744.66</ele><time>2018-06-04T15:40:29-06:00</time><course>303.19</course><roll>-0.15</roll><pitch>0.07</pitch><mode /></trkpt><trkpt lat="39.9205604" lon="-105.1131036"><ele>1744.66</ele><time>2018-06-04T15:40:29-06:00</time><course>303.41</course><roll>-0.15</roll><pitch>0.07</pitch><mode /></trkpt><trkpt lat="39.9205611" lon="-105.1131032"><ele>1744.66</ele><time>2018-06-04T15:40:29-06:00</time><course>303.37</course><roll>-0.15</roll><pitch>0.07</pitch><mode /></trkpt><trkpt lat="39.9205615" lon="-105.1131027"><ele>1744.66</ele><time>2018-06-04T15:40:29-06:00</time><course>303.58</course><roll>-0.15</roll><pitch>0.08</pitch><mode /></trkpt><trkpt lat="39.9205618" lon="-105.1131022"><ele>1744.66</ele><time>2018-06-04T15:40:30-06:00</time><course>303.54</course><roll>-0.15</roll><pitch>0.08</pitch><mode /></trkpt><trkpt lat="39.9205622" lon="-105.1131017"><ele>1744.66</ele><time>2018-06-04T15:40:30-06:00</time><course>303.49</course><roll>-0.16</roll><pitch>0.08</pitch><mode /></trkpt><trkpt lat="39.9205625" lon="-105.1131016"><ele>1744.66</ele><time>2018-06-04T15:40:30-06:00</time><course>303.45</course><roll>-0.15</roll><pitch>0.08</pitch><mode /></trkpt><trkpt lat="39.9205627" lon="-105.1131015"><ele>1744.66</ele><time>2018-06-04T15:40:30-06:00</time><course>303.41</course><roll>-0.15</roll><pitch>0.09</pitch><mode /></trkpt><trkpt lat="39.9205629" lon="-105.113101"><ele>1744.66</ele><time>2018-06-04T15:40:30-06:00</time><course>303.37</course><roll>-0.15</roll><pitch>0.09</pitch><mode /></trkpt><trkpt lat="39.9205625" lon="-105.1131006"><ele>1744.66</ele><time>2018-06-04T15:40:31-06:00</time><course>303.33</course><roll>-0.15</roll><pitch>0.09</pitch><mode /></trkpt><trkpt lat="39.9205615" lon="-105.1130999"><ele>1744.66</ele><time>2018-06-04T15:40:31-06:00</time><course>303.37</course><roll>-0.15</roll><pitch>0.09</pitch><mode /></trkpt><trkpt lat="39.9205605" lon="-105.1130993"><ele>1744.66</ele><time>2018-06-04T15:40:31-06:00</time><course>303.5</course><roll>-0.15</roll><pitch>0.09</pitch><mode /></trkpt><trkpt lat="39.9205595" lon="-105.1130988"><ele>1744.66</ele><time>2018-06-04T15:40:31-06:00</time><course>303.46</course><roll>-0.16</roll><pitch>0.09</pitch><mode /></trkpt><trkpt lat="39.9205591" lon="-105.1130982"><ele>1744.66</ele><time>2018-06-04T15:40:31-06:00</time><course>303.42</course><roll>-0.15</roll><pitch>0.09</pitch><mode /></trkpt><trkpt lat="39.9205588" lon="-105.1130971"><ele>1744.66</ele><time>2018-06-04T15:40:32-06:00</time><course>303.38</course><roll>-0.15</roll><pitch>0.09</pitch><mode /></trkpt><trkpt lat="39.9205587" lon="-105.1130962"><ele>1744.66</ele><time>2018-06-04T15:40:32-06:00</time><course>303.34</course><roll>-0.15</roll><pitch>0.09</pitch><mode /></trkpt><trkpt lat="39.9205579" lon="-105.113095"><ele>1744.66</ele><time>2018-06-04T15:40:32-06:00</time><course>303.39</course><roll>-0.16</roll><pitch>0.1</pitch><mode /></trkpt><trkpt lat="39.9205572" lon="-105.113094"><ele>1744.66</ele><time>2018-06-04T15:40:32-06:00</time><course>303.52</course><roll>-0.16</roll><pitch>0.09</pitch><mode /></trkpt><trkpt lat="39.9205567" lon="-105.1130929"><ele>1744.65</ele><time>2018-06-04T15:40:32-06:00</time><course>303.48</course><roll>-0.15</roll><pitch>0.1</pitch><mode /></trkpt><trkpt lat="39.9205561" lon="-105.1130923"><ele>1744.65</ele><time>2018-06-04T15:40:33-06:00</time><course>303.44</course><roll>-0.16</roll><pitch>0.09</pitch><mode /></trkpt><trkpt lat="39.9205555" lon="-105.1130915"><ele>1744.65</ele><time>2018-06-04T15:40:33-06:00</time><course>303.39</course><roll>-0.15</roll><pitch>0.09</pitch><mode /></trkpt><trkpt lat="39.920555" lon="-105.1130905"><ele>1744.65</ele><time>2018-06-04T15:40:33-06:00</time><course>303.35</course><roll>-0.16</roll><pitch>0.09</pitch><mode /></trkpt><trkpt lat="39.9205547" lon="-105.1130893"><ele>1744.65</ele><time>2018-06-04T15:40:33-06:00</time><course>303.31</course><roll>-0.16</roll><pitch>0.09</pitch><mode /></trkpt></trkseg></trk><wpt lat="39.9204919" lon="-105.1130495"><name>0</name></wpt><wpt lat="39.920498" lon="-105.1130524"><name>1</name></wpt><wpt lat="39.9204991" lon="-105.1130536"><name>2</name></wpt><wpt lat="39.9205009" lon="-105.1130552"><name>3</name></wpt><wpt lat="39.9205023" lon="-105.1130568"><name>4</name></wpt><wpt lat="39.9205036" lon="-105.1130587"><name>5</name></wpt><wpt lat="39.9205054" lon="-105.1130601"><name>6</name></wpt><wpt lat="39.9205073" lon="-105.1130614"><name>7</name></wpt><wpt lat="39.9205092" lon="-105.1130629"><name>8</name></wpt><wpt lat="39.9205108" lon="-105.1130645"><name>9</name></wpt><wpt lat="39.9205123" lon="-105.1130661"><name>10</name></wpt><wpt lat="39.9205137" lon="-105.1130678"><name>11</name></wpt><wpt lat="39.9205152" lon="-105.113069"><name>12</name></wpt><wpt lat="39.9205167" lon="-105.1130698"><name>13</name></wpt><wpt lat="39.920518" lon="-105.1130706"><name>14</name></wpt><wpt lat="39.9205192" lon="-105.1130714"><name>15</name></wpt><wpt lat="39.9205205" lon="-105.1130719"><name>16</name></wpt><wpt lat="39.9205218" lon="-105.1130732"><name>17</name></wpt><wpt lat="39.9205227" lon="-105.1130742"><name>18</name></wpt><wpt lat="39.9205233" lon="-105.113075"><name>19</name></wpt><wpt lat="39.920524" lon="-105.1130762"><name>20</name></wpt><wpt lat="39.9205251" lon="-105.1130775"><name>21</name></wpt><wpt lat="39.9205262" lon="-105.1130786"><name>22</name></wpt><wpt lat="39.9205274" lon="-105.1130794"><name>23</name></wpt><wpt lat="39.9205279" lon="-105.1130803"><name>24</name></wpt><wpt lat="39.9205285" lon="-105.1130812"><name>25</name></wpt><wpt lat="39.9205288" lon="-105.1130823"><name>26</name></wpt><wpt lat="39.9205293" lon="-105.1130833"><name>27</name></wpt><wpt lat="39.9205303" lon="-105.1130845"><name>28</name></wpt><wpt lat="39.9205314" lon="-105.1130859"><name>29</name></wpt><wpt lat="39.9205329" lon="-105.1130875"><name>30</name></wpt><wpt lat="39.9205344" lon="-105.1130888"><name>31</name></wpt><wpt lat="39.9205362" lon="-105.1130903"><name>32</name></wpt><wpt lat="39.9205379" lon="-105.1130915"><name>33</name></wpt><wpt lat="39.9205395" lon="-105.1130928"><name>34</name></wpt><wpt lat="39.920541" lon="-105.1130944"><name>35</name></wpt><wpt lat="39.9205424" lon="-105.1130957"><name>36</name></wpt><wpt lat="39.9205438" lon="-105.1130963"><name>37</name></wpt><wpt lat="39.9205449" lon="-105.1130971"><name>38</name></wpt><wpt lat="39.9205461" lon="-105.1130979"><name>39</name></wpt><wpt lat="39.9205476" lon="-105.113099"><name>40</name></wpt><wpt lat="39.9205491" lon="-105.1131"><name>41</name></wpt><wpt lat="39.9205503" lon="-105.1131007"><name>42</name></wpt><wpt lat="39.9205516" lon="-105.1131014"><name>43</name></wpt><wpt lat="39.9205528" lon="-105.1131022"><name>44</name></wpt><wpt lat="39.9205539" lon="-105.1131033"><name>45</name></wpt><wpt lat="39.9205547" lon="-105.1131041"><name>46</name></wpt><wpt lat="39.9205555" lon="-105.1131045"><name>47</name></wpt><wpt lat="39.9205564" lon="-105.1131047"><name>48</name></wpt><wpt lat="39.9205574" lon="-105.1131049"><name>49</name></wpt><wpt lat="39.9205581" lon="-105.1131051"><name>50</name></wpt><wpt lat="39.9205586" lon="-105.1131047"><name>51</name></wpt><wpt lat="39.9205596" lon="-105.1131042"><name>52</name></wpt><wpt lat="39.9205604" lon="-105.1131036"><name>53</name></wpt><wpt lat="39.9205611" lon="-105.1131032"><name>54</name></wpt><wpt lat="39.9205615" lon="-105.1131027"><name>55</name></wpt><wpt lat="39.9205618" lon="-105.1131022"><name>56</name></wpt><wpt lat="39.9205622" lon="-105.1131017"><name>57</name></wpt><wpt lat="39.9205625" lon="-105.1131016"><name>58</name></wpt><wpt lat="39.9205627" lon="-105.1131015"><name>59</name></wpt><wpt lat="39.9205629" lon="-105.113101"><name>60</name></wpt><wpt lat="39.9205625" lon="-105.1131006"><name>61</name></wpt><wpt lat="39.9205615" lon="-105.1130999"><name>62</name></wpt><wpt lat="39.9205605" lon="-105.1130993"><name>63</name></wpt><wpt lat="39.9205595" lon="-105.1130988"><name>64</name></wpt><wpt lat="39.9205591" lon="-105.1130982"><name>65</name></wpt><wpt lat="39.9205588" lon="-105.1130971"><name>66</name></wpt><wpt lat="39.9205587" lon="-105.1130962"><name>67</name></wpt><wpt lat="39.9205579" lon="-105.113095"><name>68</name></wpt><wpt lat="39.9205572" lon="-105.113094"><name>69</name></wpt><wpt lat="39.9205567" lon="-105.1130929"><name>70</name></wpt><wpt lat="39.9205561" lon="-105.1130923"><name>71</name></wpt><wpt lat="39.9205555" lon="-105.1130915"><name>72</name></wpt><wpt lat="39.920555" lon="-105.1130905"><name>73</name></wpt><wpt lat="39.9205547" lon="-105.1130893"><name>74</name></wpt></gpx>