<gpx creator="Mission Planner" xmlns="http://www.topografix.com/GPX/1/1"><trk><trkseg><trkpt lat="39.9201898" lon="-105.1131568"><ele>1690.31</ele><time>2018-06-04T15:29:57-06:00</time><course>60.85</course><roll>0.92</roll><pitch>-0.5</pitch><mode /></trkpt><trkpt lat="39.9201897" lon="-105.1131569"><ele>1690.29</ele><time>2018-06-04T15:29:57-06:00</time><course>60.84</course><roll>0.89</roll><pitch>-0.49</pitch><mode /></trkpt><trkpt lat="39.9201896" lon="-105.1131571"><ele>1690.27</ele><time>2018-06-04T15:29:57-06:00</time><course>60.83</course><roll>0.88</roll><pitch>-0.48</pitch><mode /></trkpt><trkpt lat="39.9201894" lon="-105.1131573"><ele>1690.23</ele><time>2018-06-04T15:29:58-06:00</time><course>60.83</course><roll>0.93</roll><pitch>-0.45</pitch><mode /></trkpt><trkpt lat="39.9201892" lon="-105.1131577"><ele>1690.22</ele><time>2018-06-04T15:29:58-06:00</time><course>60.82</course><roll>0.89</roll><pitch>-0.44</pitch><mode /></trkpt><trkpt lat="39.9201891" lon="-105.1131579"><ele>1690.22</ele><time>2018-06-04T15:29:58-06:00</time><course>60.82</course><roll>0.88</roll><pitch>-0.45</pitch><mode /></trkpt><trkpt lat="39.9201887" lon="-105.1131578"><ele>1690.18</ele><time>2018-06-04T15:29:59-06:00</time><course>60.8</course><roll>0.85</roll><pitch>-0.42</pitch><mode /></trkpt><trkpt lat="39.9201888" lon="-105.1131576"><ele>1690.1</ele><time>2018-06-04T15:30:00-06:00</time><course>60.79</course><roll>0.84</roll><pitch>-0.4</pitch><mode /></trkpt><trkpt lat="39.9201887" lon="-105.1131575"><ele>1690.07</ele><time>2018-06-04T15:30:00-06:00</time><course>60.78</course><roll>0.83</roll><pitch>-0.38</pitch><mode /></trkpt><trkpt lat="39.9201886" lon="-105.1131573"><ele>1690.01</ele><time>2018-06-04T15:30:00-06:00</time><course>60.77</course><roll>0.83</roll><pitch>-0.38</pitch><mode /></trkpt><trkpt lat="39.9201884" lon="-105.1131574"><ele>1689.95</ele><time>2018-06-04T15:30:01-06:00</time><course>60.77</course><roll>0.89</roll><pitch>-0.39</pitch><mode /></trkpt><trkpt lat="39.9201884" lon="-105.1131576"><ele>1689.92</ele><time>2018-06-04T15:30:01-06:00</time><course>60.75</course><roll>0.86</roll><pitch>-0.37</pitch><mode /></trkpt><trkpt lat="39.9201885" lon="-105.1131582"><ele>1689.92</ele><time>2018-06-04T15:30:02-06:00</time><course>60.75</course><roll>0.9</roll><pitch>-0.37</pitch><mode /></trkpt><trkpt lat="39.9201886" lon="-105.1131592"><ele>1689.95</ele><time>2018-06-04T15:30:03-06:00</time><course>60.75</course><roll>0.86</roll><pitch>-0.36</pitch><mode /></trkpt><trkpt lat="39.9201888" lon="-105.1131611"><ele>1690.18</ele><time>2018-06-04T15:30:04-06:00</time><course>60.74</course><roll>0.83</roll><pitch>-0.35</pitch><mode /></trkpt><trkpt lat="39.9201889" lon="-105.1131614"><ele>1690.22</ele><time>2018-06-04T15:30:04-06:00</time><course>60.73</course><roll>0.84</roll><pitch>-0.34</pitch><mode /></trkpt><trkpt lat="39.9201892" lon="-105.1131616"><ele>1690.28</ele><time>2018-06-04T15:30:04-06:00</time><course>60.73</course><roll>0.83</roll><pitch>-0.33</pitch><mode /></trkpt><trkpt lat="39.9201895" lon="-105.1131618"><ele>1690.33</ele><time>2018-06-04T15:30:04-06:00</time><course>60.73</course><roll>0.82</roll><pitch>-0.31</pitch><mode /></trkpt><trkpt lat="39.9201896" lon="-105.113162"><ele>1690.38</ele><time>2018-06-04T15:30:05-06:00</time><course>60.72</course><roll>0.82</roll><pitch>-0.3</pitch><mode /></trkpt><trkpt lat="39.9201897" lon="-105.1131622"><ele>1690.41</ele><time>2018-06-04T15:30:05-06:00</time><course>60.71</course><roll>0.85</roll><pitch>-0.3</pitch><mode /></trkpt><trkpt lat="39.9201898" lon="-105.1131624"><ele>1690.46</ele><time>2018-06-04T15:30:05-06:00</time><course>60.71</course><roll>0.9</roll><pitch>-0.3</pitch><mode /></trkpt><trkpt lat="39.9201899" lon="-105.1131627"><ele>1690.5</ele><time>2018-06-04T15:30:05-06:00</time><course>60.71</course><roll>0.93</roll><pitch>-0.29</pitch><mode /></trkpt><trkpt lat="39.9201901" lon="-105.1131635"><ele>1690.57</ele><time>2018-06-04T15:30:06-06:00</time><course>60.7</course><roll>0.93</roll><pitch>-0.28</pitch><mode /></trkpt><trkpt lat="39.92019" lon="-105.1131638"><ele>1690.6</ele><time>2018-06-04T15:30:06-06:00</time><course>60.7</course><roll>0.91</roll><pitch>-0.29</pitch><mode /></trkpt><trkpt lat="39.9201901" lon="-105.1131642"><ele>1690.64</ele><time>2018-06-04T15:30:06-06:00</time><course>60.69</course><roll>0.91</roll><pitch>-0.3</pitch><mode /></trkpt><trkpt lat="39.92019" lon="-105.1131645"><ele>1690.69</ele><time>2018-06-04T15:30:06-06:00</time><course>60.69</course><roll>0.94</roll><pitch>-0.29</pitch><mode /></trkpt><trkpt lat="39.9201899" lon="-105.1131649"><ele>1690.73</ele><time>2018-06-04T15:30:06-06:00</time><course>60.69</course><roll>0.94</roll><pitch>-0.28</pitch><mode /></trkpt><trkpt lat="39.9201898" lon="-105.1131653"><ele>1690.78</ele><time>2018-06-04T15:30:07-06:00</time><course>60.69</course><roll>0.92</roll><pitch>-0.28</pitch><mode /></trkpt><trkpt lat="39.9201897" lon="-105.1131659"><ele>1690.84</ele><time>2018-06-04T15:30:07-06:00</time><course>60.69</course><roll>0.88</roll><pitch>-0.28</pitch><mode /></trkpt><trkpt lat="39.9201896" lon="-105.1131662"><ele>1690.88</ele><time>2018-06-04T15:30:07-06:00</time><course>60.7</course><roll>0.88</roll><pitch>-0.28</pitch><mode /></trkpt><trkpt lat="39.9201895" lon="-105.1131665"><ele>1690.9</ele><time>2018-06-04T15:30:07-06:00</time><course>60.7</course><roll>0.87</roll><pitch>-0.28</pitch><mode /></trkpt><trkpt lat="39.9201894" lon="-105.1131668"><ele>1690.93</ele><time>2018-06-04T15:30:08-06:00</time><course>60.69</course><roll>0.87</roll><pitch>-0.28</pitch><mode /></trkpt><trkpt lat="39.9201892" lon="-105.1131669"><ele>1690.96</ele><time>2018-06-04T15:30:08-06:00</time><course>60.69</course><roll>0.85</roll><pitch>-0.28</pitch><mode /></trkpt><trkpt lat="39.9201889" lon="-105.113167"><ele>1691</ele><time>2018-06-04T15:30:08-06:00</time><course>60.69</course><roll>0.85</roll><pitch>-0.27</pitch><mode /></trkpt><trkpt lat="39.920189" lon="-105.1131672"><ele>1691.15</ele><time>2018-06-04T15:30:08-06:00</time><course>60.69</course><roll>0.86</roll><pitch>-0.26</pitch><mode /></trkpt><trkpt lat="39.9201888" lon="-105.1131675"><ele>1691.24</ele><time>2018-06-04T15:30:09-06:00</time><course>60.69</course><roll>0.84</roll><pitch>-0.26</pitch><mode /></trkpt><trkpt lat="39.9201886" lon="-105.1131677"><ele>1691.31</ele><time>2018-06-04T15:30:09-06:00</time><course>60.68</course><roll>0.83</roll><pitch>-0.27</pitch><mode /></trkpt><trkpt lat="39.9201885" lon="-105.1131679"><ele>1691.4</ele><time>2018-06-04T15:30:09-06:00</time><course>60.67</course><roll>0.86</roll><pitch>-0.26</pitch><mode /></trkpt><trkpt lat="39.9201884" lon="-105.1131683"><ele>1691.56</ele><time>2018-06-04T15:30:09-06:00</time><course>60.68</course><roll>0.95</roll><pitch>-0.24</pitch><mode /></trkpt><trkpt lat="39.9201883" lon="-105.1131688"><ele>1691.69</ele><time>2018-06-04T15:30:10-06:00</time><course>60.67</course><roll>0.94</roll><pitch>-0.22</pitch><mode /></trkpt><trkpt lat="39.9201881" lon="-105.1131689"><ele>1691.72</ele><time>2018-06-04T15:30:10-06:00</time><course>60.66</course><roll>0.93</roll><pitch>-0.23</pitch><mode /></trkpt><trkpt lat="39.9201878" lon="-105.1131691"><ele>1691.75</ele><time>2018-06-04T15:30:10-06:00</time><course>60.66</course><roll>0.93</roll><pitch>-0.23</pitch><mode /></trkpt><trkpt lat="39.9201873" lon="-105.1131694"><ele>1691.77</ele><time>2018-06-04T15:30:10-06:00</time><course>60.66</course><roll>0.94</roll><pitch>-0.24</pitch><mode /></trkpt><trkpt lat="39.9201872" lon="-105.1131696"><ele>1691.82</ele><time>2018-06-04T15:30:11-06:00</time><course>60.66</course><roll>0.95</roll><pitch>-0.26</pitch><mode /></trkpt><trkpt lat="39.9201871" lon="-105.1131698"><ele>1691.83</ele><time>2018-06-04T15:30:11-06:00</time><course>60.66</course><roll>0.93</roll><pitch>-0.26</pitch><mode /></trkpt></trkseg></trk><wpt lat="39.9201898" lon="-105.1131568"><name>0</name></wpt><wpt lat="39.9201897" lon="-105.1131569"><name>1</name></wpt><wpt lat="39.9201896" lon="-105.1131571"><name>2</name></wpt><wpt lat="39.9201894" lon="-105.1131573"><name>3</name></wpt><wpt lat="39.9201892" lon="-105.1131577"><name>4</name></wpt><wpt lat="39.9201891" lon="-105.1131579"><name>5</name></wpt><wpt lat="39.9201887" lon="-105.1131578"><name>6</name></wpt><wpt lat="39.9201888" lon="-105.1131576"><name>7</name></wpt><wpt lat="39.9201887" lon="-105.1131575"><name>8</name></wpt><wpt lat="39.9201886" lon="-105.1131573"><name>9</name></wpt><wpt lat="39.9201884" lon="-105.1131574"><name>10</name></wpt><wpt lat="39.9201884" lon="-105.1131576"><name>11</name></wpt><wpt lat="39.9201885" lon="-105.1131582"><name>12</name></wpt><wpt lat="39.9201886" lon="-105.1131592"><name>13</name></wpt><wpt lat="39.9201888" lon="-105.1131611"><name>14</name></wpt><wpt lat="39.9201889" lon="-105.1131614"><name>15</name></wpt><wpt lat="39.9201892" lon="-105.1131616"><name>16</name></wpt><wpt lat="39.9201895" lon="-105.1131618"><name>17</name></wpt><wpt lat="39.9201896" lon="-105.113162"><name>18</name></wpt><wpt lat="39.9201897" lon="-105.1131622"><name>19</name></wpt><wpt lat="39.9201898" lon="-105.1131624"><name>20</name></wpt><wpt lat="39.9201899" lon="-105.1131627"><name>21</name></wpt><wpt lat="39.9201901" lon="-105.1131635"><name>22</name></wpt><wpt lat="39.92019" lon="-105.1131638"><name>23</name></wpt><wpt lat="39.9201901" lon="-105.1131642"><name>24</name></wpt><wpt lat="39.92019" lon="-105.1131645"><name>25</name></wpt><wpt lat="39.9201899" lon="-105.1131649"><name>26</name></wpt><wpt lat="39.9201898" lon="-105.1131653"><name>27</name></wpt><wpt lat="39.9201897" lon="-105.1131659"><name>28</name></wpt><wpt lat="39.9201896" lon="-105.1131662"><name>29</name></wpt><wpt lat="39.9201895" lon="-105.1131665"><name>30</name></wpt><wpt lat="39.9201894" lon="-105.1131668"><name>31</name></wpt><wpt lat="39.9201892" lon="-105.1131669"><name>32</name></wpt><wpt lat="39.9201889" lon="-105.113167"><name>33</name></wpt><wpt lat="39.920189" lon="-105.1131672"><name>34</name></wpt><wpt lat="39.9201888" lon="-105.1131675"><name>35</name></wpt><wpt lat="39.9201886" lon="-105.1131677"><name>36</name></wpt><wpt lat="39.9201885" lon="-105.1131679"><name>37</name></wpt><wpt lat="39.9201884" lon="-105.1131683"><name>38</name></wpt><wpt lat="39.9201883" lon="-105.1131688"><name>39</name></wpt><wpt lat="39.9201881" lon="-105.1131689"><name>40</name></wpt><wpt lat="39.9201878" lon="-105.1131691"><name>41</name></wpt><wpt lat="39.9201873" lon="-105.1131694"><name>42</name></wpt><wpt lat="39.9201872" lon="-105.1131696"><name>43</name></wpt><wpt lat="39.9201871" lon="-105.1131698"><name>44</name></wpt></gpx>